NORAD_CAT_ID,OBJECT_NAME,OBJECT_TYPE,EPOCH,MEAN_MOTION,ECCENTRICITY,INCLINATION,RA_OF_ASC_NODE,ARG_OF_PERICENTER,MEAN_ANOMALY,BSTAR,MEAN_MOTION_DOT,MEAN_MOTION_DDOT,TLE_LINE0,TLE_LINE1,TLE_LINE2,SEMIMAJOR_AXIS,PERIOD,APOGEE,PERIGEE,DECAYED
52094.0,STARLINK-3714,PAYLOAD,2023-07-17 00:51:16,15.08838259,0.0001111,53.2173,108.5999,86.3676,273.7443,-5.1573e-05,-1.108e-05,0.0,0 STARLINK-3714,1 52094U 22029G   23198.03560332 -.00001108  00000-0 -51573-4 0  9997,2 52094  53.2173 108.5999 0001111  86.3676 273.7443 15.08838259 74723,6917.886,95.438,540.519,538.982,0.0
52094.0,STARLINK-3714,PAYLOAD,2023-07-18 02:17:24,15.0885742,0.0001079,53.2174,103.843,88.0011,272.1105,0.00019311,2.788e-05,0.0,0 STARLINK-3714,1 52094U 22029G   23199.09542342  .00002788  00000-0  19311-3 0  9991,2 52094  53.2174 103.8430 0001079  88.0011 272.1105 15.08857420 74883,6917.827,95.436,540.439,538.946,0.0
52094.0,STARLINK-3714,PAYLOAD,2023-07-19 02:08:13,15.0883267,0.0001235,53.2175,99.3786,96.6865,263.4268,1.1599e-05,-1.03e-06,0.0,0 STARLINK-3714,1 52094U 22029G   23200.08904764 -.00000103  00000-0  11599-4 0  9994,2 52094  53.2175  99.3786 0001235  96.6865 263.4268 15.08832670 75034,6917.903,95.438,540.622,538.913,0.0
52094.0,STARLINK-3714,PAYLOAD,2023-07-20 17:52:52,15.08834786,9.64e-05,53.2171,91.9493,107.587,252.5228,0.0001007,1.315e-05,0.0,0 STARLINK-3714,1 52094U 22029G   23201.74504961  .00001315  00000-0  10070-3 0  9990,2 52094  53.2171  91.9493 0000964 107.5870 252.5228 15.08834786 75281,6917.896,95.438,540.428,539.094,0.0
52094.0,STARLINK-3714,PAYLOAD,2023-07-21 01:49:47,15.08843004,0.0001047,53.2176,90.4617,108.078,252.0327,0.0001707,2.43e-05,0.0,0 STARLINK-3714,1 52094U 22029G   23202.07624373  .00002430  00000-0  17070-3 0  9993,2 52094  53.2176  90.4617 0001047 108.0780 252.0327 15.08843004 75331,6917.871,95.437,540.461,539.012,0.0
52094.0,STARLINK-3714,PAYLOAD,2023-07-21 16:08:16,15.0883659,0.0001026,53.2175,87.7855,111.8609,248.2493,0.00014563,2.03e-05,0.0,0 STARLINK-3714,1 52094U 22029G   23202.67240965  .00002030  00000-0  14563-3 0  9990,2 52094  53.2175  87.7855 0001026 111.8609 248.2493 15.08836590 75425,6917.891,95.438,540.466,539.046,0.0
52094.0,STARLINK-3714,PAYLOAD,2023-07-24 01:22:08,15.08844719,0.0001227,53.2188,77.0776,139.558,220.5503,8.5054e-06,-1.52e-06,0.0,0 STARLINK-3714,1 52094U 22029G   23205.05704731 -.00000152  00000-0  85054-5 0  9990,2 52094  53.2188  77.0776 0001227 139.5580 220.5503 15.08844719 75787,6917.866,95.437,540.58,538.882,0.0
52094.0,STARLINK-3714,PAYLOAD,2023-07-25 01:12:55,15.08849528,0.0001112,53.2179,72.6164,117.9205,242.19,7.4216e-05,8.94e-06,0.0,0 STARLINK-3714,1 52094U 22029G   23206.05064393  .00000894  00000-0  74216-4 0  9993,2 52094  53.2179  72.6164 0001112 117.9205 242.1900 15.08849528 75937,6917.851,95.437,540.486,538.947,0.0
52094.0,STARLINK-3714,PAYLOAD,2023-07-26 01:03:43,15.08841405,0.0001097,53.2176,68.1587,84.5057,275.606,7.0801e-05,8.39e-06,0.0,0 STARLINK-3714,1 52094U 22029G   23207.04425250  .00000839  00000-0  70801-4 0  9991,2 52094  53.2176  68.1587 0001097  84.5057 275.6060 15.08841405 76080,6917.876,95.437,540.5,538.982,0.0
52094.0,STARLINK-3714,PAYLOAD,2023-07-26 21:43:42,15.08876321,9.97e-05,53.2178,64.2927,68.5608,291.5491,-0.00036889,-6.16e-05,0.0,0 STARLINK-3714,1 52094U 22029G   23207.90535866 -.00006160  00000-0 -36889-3 0  9993,2 52094  53.2178  64.2927 0000997  68.5608 291.5491 15.08876321 76214,6917.769,95.435,540.324,538.945,0.0
52094.0,STARLINK-3714,PAYLOAD,2023-07-27 07:16:03,15.08828707,5.68e-05,53.2171,62.5098,112.943,247.1622,0.00018751,2.697e-05,0.0,0 STARLINK-3714,1 52094U 22029G   23208.30281439  .00002697  00000-0  18751-3 0  9999,2 52094  53.2171  62.5098 0000568 112.9430 247.1622 15.08828707 76272,6917.915,95.438,540.173,539.387,0.0
52094.0,STARLINK-3714,PAYLOAD,2023-07-27 21:34:32,15.08826591,0.0001118,53.2179,59.8334,93.0285,267.0835,-4.4389e-05,-9.94e-06,0.0,0 STARLINK-3714,1 52094U 22029G   23208.89898657 -.00000994  00000-0 -44389-4 0  9996,2 52094  53.2179  59.8334 0001118  93.0285 267.0835 15.08826591 76367,6917.921,95.438,540.56,539.013,0.0
52094.0,STARLINK-3714,PAYLOAD,2023-07-28 13:28:23,15.08839571,0.0001196,53.2182,56.8595,96.5689,263.5439,3.4977e-05,2.69e-06,0.0,0 STARLINK-3714,1 52094U 22029G   23209.56137813  .00000269  00000-0  34977-4 0  9996,2 52094  53.2182  56.8595 0001196  96.5689 263.5439 15.08839571 76463,6917.882,95.438,540.574,538.919,0.0
52094.0,STARLINK-3714,PAYLOAD,2023-07-28 21:25:17,15.08871789,0.0001075,53.2176,55.373,103.7621,256.3491,-0.00029657,-5.009e-05,0.0,0 STARLINK-3714,1 52094U 22029G   23209.89256914 -.00005009  00000-0 -29657-3 0  9993,2 52094  53.2176  55.3730 0001075 103.7621 256.3491 15.08871789 76515,6917.783,95.436,540.392,538.905,0.0
52094.0,STARLINK-3714,PAYLOAD,2023-07-29 19:40:42,15.08849255,0.0001058,53.2172,51.21,92.5865,267.5248,0.00015534,2.186e-05,0.0,0 STARLINK-3714,1 52094U 22029G   23210.81993102  .00002186  00000-0  15534-3 0  9994,2 52094  53.2172  51.2100 0001058  92.5865 267.5248 15.08849255 76655,6917.852,95.437,540.449,538.985,0.0
52094.0,STARLINK-3714,PAYLOAD,2023-07-30 19:31:29,15.08841323,0.0001037,53.217,46.749,89.5775,270.5336,2.0717e-05,4.2e-07,0.0,0 STARLINK-3714,1 52094U 22029G   23211.81353842  .00000042  00000-0  20717-4 0  9995,2 52094  53.2170  46.7490 0001037  89.5775 270.5336 15.08841323 76804,6917.876,95.437,540.459,539.024,0.0
52094.0,STARLINK-3714,PAYLOAD,2023-07-31 17:46:54,15.08831124,0.0001273,53.219,42.5853,105.009,255.1043,-0.00010765,-2e-05,0.0,0 STARLINK-3714,1 52094U 22029G   23212.74090887 -.00002000  00000-0 -10765-3 0  9994,2 52094  53.2190  42.5853 0001273 105.0090 255.1043 15.08831124 76946,6917.908,95.438,540.653,538.892,0.0
52094.0,STARLINK-3714,PAYLOAD,2023-08-01 17:37:40,15.08844708,9.78e-05,53.2179,38.1254,84.9772,275.1332,0.00012668,1.729e-05,0.0,0 STARLINK-3714,1 52094U 22029G   23213.73449654  .00001729  00000-0  12668-3 0  9993,2 52094  53.2179  38.1254 0000978  84.9772 275.1332 15.08844708 77094,6917.866,95.437,540.408,539.054,0.0
52094.0,STARLINK-3714,PAYLOAD,2023-08-02 17:28:27,15.08837549,9.87e-05,53.2181,33.6631,97.7532,262.3573,0.00017317,2.469e-05,0.0,0 STARLINK-3714,1 52094U 22029G   23214.72810015  .00002469  00000-0  17317-3 0  9994,2 52094  53.2181  33.6631 0000987  97.7532 262.3573 15.08837549 77249,6917.888,95.438,540.436,539.07,0.0
52094.0,STARLINK-3714,PAYLOAD,2023-08-04 18:45:25,15.08840667,0.0001041,53.2182,24.4466,83.6342,276.4768,-2.4898e-05,-6.84e-06,0.0,0 STARLINK-3714,1 52094U 22029G   23216.78154660 -.00000684  00000-0 -24898-4 0  9991,2 52094  53.2182  24.4466 0001041  83.6342 276.4768 15.08840667 77550,6917.878,95.438,540.464,539.023,0.0
52094.0,STARLINK-3714,PAYLOAD,2023-08-05 17:00:49,15.08803836,9.96e-05,53.2181,20.2855,85.2612,274.8494,0.00096376,0.00015068,0.0,0 STARLINK-3714,1 52094U 22029G   23217.70890339  .00015068  00000-0  96376-3 0  9993,2 52094  53.2181  20.2855 0000996  85.2612 274.8494 15.08803836 77691,6917.991,95.44,540.545,539.167,0.0
52094.0,STARLINK-3714,PAYLOAD,2023-08-05 21:46:56,15.08862705,9.43e-05,53.218,19.3923,78.905,281.2048,0.00032901,4.955e-05,0.0,0 STARLINK-3714,1 52094U 22029G   23217.90760312  .00004955  00000-0  32901-3 0  9999,2 52094  53.2180  19.3923 0000943  78.9050 281.2048 15.08862705 77723,6917.811,95.436,540.328,539.024,0.0
52094.0,STARLINK-3714,PAYLOAD,2023-08-06 10:30:04,15.08818834,7.88e-05,53.2181,17.0123,117.2299,242.8774,-0.00024329,-4.155e-05,0.0,0 STARLINK-3714,1 52094U 22029G   23218.43755489 -.00004155  00000-0 -24329-3 0  9996,2 52094  53.2181  17.0123 0000788 117.2299 242.8774 15.08818834 77802,6917.945,95.439,540.355,539.265,0.0
52094.0,STARLINK-3714,PAYLOAD,2023-08-07 03:59:19,15.0882953,8.33e-05,53.2174,13.7428,104.9233,255.1851,4.1352e-05,3.7e-06,0.0,0 STARLINK-3714,1 52094U 22029G   23219.16619702  .00000370  00000-0  41352-4 0  9993,2 52094  53.2174  13.7428 0000833 104.9233 255.1851 15.08829530 77917,6917.912,95.438,540.354,539.201,0.0
52094.0,STARLINK-3714,PAYLOAD,2023-08-07 16:42:24,15.08844728,8.31e-05,53.2174,11.3637,97.3325,262.7762,0.0011067,0.00017371,0.0,0 STARLINK-3714,1 52094U 22029G   23219.69612119  .00017371  00000-0  11067-2 0  9993,2 52094  53.2174  11.3637 0000831  97.3325 262.7762 15.08844728 77997,6917.866,95.437,540.306,539.156,0.0
52094.0,STARLINK-3714,PAYLOAD,2023-08-08 19:43:56,15.0888269,7.88e-05,53.2178,6.3089,83.2426,276.8656,0.0012371,0.00019478,0.0,0 STARLINK-3714,1 52094U 22029G   23220.82218490  .00019478  00000-0  12371-2 0  9993,2 52094  53.2178   6.3089 0000788  83.2426 276.8656 15.08882690 78161,6917.75,95.435,540.16,539.07,0.0
52094.0,STARLINK-3714,PAYLOAD,2023-08-09 10:02:25,15.0884766,7.51e-05,53.2178,3.6328,98.3106,261.7972,-4.0552e-05,-9.33e-06,0.0,0 STARLINK-3714,1 52094U 22029G   23221.41834674 -.00000933  00000-0 -40552-4 0  9999,2 52094  53.2178   3.6328 0000751  98.3106 261.7972 15.08847660 78251,6917.857,95.437,540.242,539.202,0.0
52094.0,STARLINK-3714,PAYLOAD,2023-08-10 09:53:12,15.08834737,7.84e-05,53.2174,359.1714,92.0791,268.0291,0.00029059,4.339e-05,0.0,0 STARLINK-3714,1 52094U 22029G   23222.41195013  .00004339  00000-0  29059-3 0  9997,2 52094  53.2174 359.1714 0000784  92.0791 268.0291 15.08834737 78404,6917.896,95.438,540.304,539.219,0.0
52094.0,STARLINK-3714,PAYLOAD,2023-08-11 17:40:54,15.08848898,8.65e-05,53.2171,353.2248,88.5923,271.5168,0.00042151,6.429e-05,0.0,0 STARLINK-3714,1 52094U 22029G   23223.73674732  .00006429  00000-0  42151-3 0  9993,2 52094  53.2171 353.2248 0000865  88.5923 271.5168 15.08848898 78602,6917.853,95.437,540.317,539.12,0.0
52094.0,STARLINK-3714,PAYLOAD,2023-08-12 01:37:50,15.08839414,8.35e-05,53.2174,351.7347,88.7159,271.3929,0.00011037,1.469e-05,0.0,0 STARLINK-3714,1 52094U 22029G   23224.06794866  .00001469  00000-0  11037-3 0  9999,2 52094  53.2174 351.7347 0000835  88.7159 271.3929 15.08839414 78650,6917.882,95.438,540.325,539.17,0.0
